#aV2011 11 28  0  0   .00000000      96 DD+AD WGS84 FIT  NGA
## 1664  86400.00000000   900.00000000 55893  .0000000000000
+   31     1  2  3  4  5  6  7  8  9 10 11 12 13 14 15 16 17
+         18 19 20 21 22 23 25 26 27 28 29 30 31 32  0  0  0
+          0  0  0  0  0  0  0  0  0  0  0  0  0  0  0  0  0
+          0  0  0  0  0  0  0  0  0  0  0  0  0  0  0  0  0
+          0  0  0  0  0  0  0  0  0  0  0  0  0  0  0  0  0
++         0  0  0  0  0  0  0  0  0  0  0  0  0  0  0  0  0
++         0  0  0  0  0  0  0  0  0  0  0  0  0  0  0  0  0
++         0  0  0  0  0  0  0  0  0  0  0  0  0  0  0  0  0
++         0  0  0  0  0  0  0  0  0  0  0  0  0  0  0  0  0
++         0  0  0  0  0  0  0  0  0  0  0  0  0  0  0  0  0
%c cc cc ccc ccc cccc cccc cccc cccc ccccc ccccc ccccc ccccc
%c cc cc ccc ccc cccc cccc cccc cccc ccccc ccccc ccccc ccccc
%f  0.0000000  0.000000000  0.00000000000  0.000000000000000
%f  0.0000000  0.000000000  0.00000000000  0.000000000000000
%i    0    0    0    0      0      0      0      0         0
%i    0    0    0    0      0      0      0      0         0
/*      NGA, ST. LOUIS,MO.                                  
/*   EPHEMERIS COMPUTED FROM  3 DAYS OF DATA                
/* CCCCCCCCCCCCCCCCCCCCCCCCCCCCCCCCCCCCCCCCCCCCCCCCCCCCCCCCC
/* CCCCCCCCCCCCCCCCCCCCCCCCCCCCCCCCCCCCCCCCCCCCCCCCCCCCCCCCC
*  2011 11 28  1 45   .00000000                                                 
P  1 -13413.445530  11945.192348  19546.605833    116.488006                    
V  1  -1840.500084 -24826.528592  13903.076319       .188384                    
P  2  13758.343904  13857.156853 -18135.814819    367.676141                    
V  2   -853.484499  23130.474044  16452.521672       .017862                    
P  3 -24367.899844 -10898.119127  -1587.478346    800.846534                    
V  3   2665.600081  -2729.135104 -30785.519223       .050931                    
P  4   7372.547301  23582.401318  -9522.292966     16.864258                    
V  4  -3203.843506  11959.826889  28165.606703       .112913                    
P  5  20651.118308   1451.936642 -16730.216863   -250.851262                    
V  5 -17183.814133  12522.435590 -20021.252409      -.048894                    
P  6 -22246.783855 -14142.090265  -4110.984930      8.485633                    
V  6   6266.401151   -634.630497 -30469.108030       .048925                    
P  7  -6659.017961  23560.024930  -9964.356191     39.944381                    
V  7  -2346.867603 -12732.952175 -28714.794708       .022594                    
P  8  -1355.703896  26191.760670    965.201971       .119090                    
V  8  -2217.788536   1009.569457 -32902.082588       .000577                    
P  9  13628.007876  -7870.908561  20854.230700    121.285134                    
V  9   1531.217711  27658.539764   9175.216567       .024586                    
P 10   3771.440259  15543.161169 -21390.101749    -20.402696                    
V 10 -23550.372033  12643.822893   5482.228464      -.011983                    
P 11 -15818.263609   5002.970954  20370.959162   -208.024623                    
V 11  -7724.756976 -25931.892360    699.433150      -.035851                    
P 12  23727.221983 -11383.311815   2810.687247     37.332408                    
V 12  -1906.522135   3859.088455  31981.059963       .022784                    
P 13  -8895.032274  11707.121581 -22257.513489    239.185577                    
V 13 -23069.328298 -15601.877086    940.837316      -.020067                    
P 14 -10728.089948 -19054.722194  15355.370125    183.285858                    
V 14  16850.195147   9064.090239  23152.117496       .017444                    
P 15  23015.960270   1308.702819  13366.840753    -98.154279                    
V 15  13829.605967  10034.353524 -24616.090754       .010104                    
P 16 -20092.821120  -2295.800192 -17355.694484   -211.138050                    
V 16  18629.536479 -11600.085084 -19727.447765      -.019680                    
P 17   9631.505198  18955.995912  16215.321232    163.493054                    
V 17 -18204.625812  -8950.429375  21237.474547      -.019208                    
P 18  12284.888087 -19071.013865  13853.805431    169.204788                    
V 18  16421.510635  -6085.442108 -23882.053202       .018257                    
P 19 -23308.361436  -5841.876547  11679.006429   -209.422379                    
V 19 -11019.404911 -10042.996716 -26577.284183      -.039598                    
P 20 -22958.513818  13047.857068   2289.705930     56.930290                    
V 20    518.875389  -4866.726503  30968.439200       .007338                    
P 21   3868.952103 -25267.190643  -5503.878434   -187.320725                    
V 21   4272.693608   7661.739594 -30383.103740      -.024447                    
P 22  -2064.009446 -16679.193550  20724.423562    143.264772                    
V 22  23051.257522 -12195.683238  -7693.910910      -.002211                    
P 23 -17896.030944   5066.313798 -19068.110657    255.622076                    
V 23 -20379.975937 -12997.356810  15298.275331      -.032783                    
P 25  18850.638680 -17310.844851  -7059.364768     28.877026                    
V 25   8929.267327  -2537.310977  30197.323085       .009862                    
P 26  23055.981304  13178.367909   2769.638126   -241.670127                    
V 26   2531.631046   3796.363762 -31784.048956      -.136194                    
P 27  15085.014434    166.589779  22514.003362    330.162776                    
V 27   1663.071521  26913.284171   -955.290318       .039916                    
P 28  -1984.061731  17000.196013  20780.584788     88.123614                    
V 28 -22591.804758  11205.400360 -11872.536886       .033744                    
P 29   9503.250312 -11905.337400 -21692.850857    261.246119                    
V 29  23517.931412  14623.063847   2307.834898       .032575                    
P 30 -10115.265645 -11730.967099 -21975.370330     38.108178                    
V 30  21564.710502 -16213.655327  -1301.883467      -.109870                    
P 31  -8373.861846 -21684.852810 -12433.392601    175.238513                    
V 31   1998.160500 -16174.473507  26638.734740       .050626                    
P 32 -24308.015061   4457.417532   9334.390768   -368.609627                    
V 32   9153.478790  -7851.885352  28775.921209      -.059391                    
EOF
